{"type": "FeatureCollection", "features": [ {"type": "Feature", "properties": {"norad_id": 30208, "name": "FENGYUN 1C DEB", "group": "fengyun-1c-debris", "lat": 72.07218736929356, "lon": -150.9995412825901, "alt_km": 819.2691548201674, "timestamp": "2025-12-26T15:29:39.714015+00:00", "meta": {"OBJECT_NAME": "FENGYUN 1C DEB", "OBJECT_ID": "1999-025VR", "EPOCH": "2025-12-25T22:29:26.468160", "MEAN_MOTION": 14.23554114, "ECCENTRICITY": 0.0033124, "INCLINATION": 98.5621, "RA_OF_ASC_NODE": 0.5577, "ARG_OF_PERICENTER": 230.7156, "MEAN_ANOMALY": 206.5933, "EPHEMERIS_TYPE": 0, "CLASSIFICATION_TYPE": "U", "NORAD_CAT_ID": 30208, "ELEMENT_SET_NO": 999, "REV_AT_EPOCH": 98025, "BSTAR": 0.00044228, "MEAN_MOTION_DOT": 9.69e-06, "MEAN_MOTION_DDOT": 0}, "tle": {"line1": "1 30208U 99025VR  25359.93711190  .00000969  00000+0  44228-3 0  9999", "line2": "2 30208  98.5621   0.5577 0033124 230.7156 206.5933 14.23554114980259"}}, "geometry": {"type": "Point", "coordinates": [-150.9995412825901, 72.07218736929356]}}, {"type": "Feature", "properties": {"norad_id": 30209, "name": "FENGYUN 1C DEB", "group": "fengyun-1c-debris", "lat": -78.31722869684648, "lon": 44.984933364106766, "alt_km": 851.3085960528961, "timestamp": "2025-12-26T15:29:39.714024+00:00", "meta": {"OBJECT_NAME": "FENGYUN 1C DEB", "OBJECT_ID": "1999-025VS", "EPOCH": "2025-12-26T05:45:55.626624", "MEAN_MOTION": 14.12917404, "ECCENTRICITY": 0.00390448, "INCLINATION": 98.7147, "RA_OF_ASC_NODE": 356.7078, "ARG_OF_PERICENTER": 199.8123, "MEAN_ANOMALY": 176.8021, "EPHEMERIS_TYPE": 0, "CLASSIFICATION_TYPE": "U", "NORAD_CAT_ID": 30209, "ELEMENT_SET_NO": 999, "REV_AT_EPOCH": 97397, "BSTAR": 0.00024900487, "MEAN_MOTION_DOT": 4.24e-06, "MEAN_MOTION_DDOT": 0}, "tle": {"line1": "1 30209U 99025VS  25360.24022716  .00000424  00000+0  24900-3 0  9996", "line2": "2 30209  98.7147 356.7078 0039044 199.8123 176.8021 14.12917404973974"}}, "geometry": {"type": "Point", "coordinates": [44.984933364106766, -78.31722869684648]}}, {"type": "Feature", "properties": {"norad_id": 30210, "name": "FENGYUN 1C DEB", "group": "fengyun-1c-debris", "lat": 51.93190283466868, "lon": 38.717567256415634, "alt_km": 831.295985865163, "timestamp": "2025-12-26T15:29:39.714035+00:00", "meta": {"OBJECT_NAME": "FENGYUN 1C DEB", "OBJECT_ID": "1999-025VT", "EPOCH": "2025-12-26T01:52:07.439232", "MEAN_MOTION": 14.08295759, "ECCENTRICITY": 0.00567136, "INCLINATION": 99.189, "RA_OF_ASC_NODE": 50.0673, "ARG_OF_PERICENTER": 99.8326, "MEAN_ANOMALY": 316.829, "EPHEMERIS_TYPE": 0, "CLASSIFICATION_TYPE": "U", "NORAD_CAT_ID": 30210, "ELEMENT_SET_NO": 999, "REV_AT_EPOCH": 96945, "BSTAR": 0.00065644072, "MEAN_MOTION_DOT": 1.093e-05, "MEAN_MOTION_DDOT": 0}, "tle": {"line1": "1 30210U 99025VT  25360.07786388  .00001093  00000+0  65644-3 0  9994", "line2": "2 30210  99.1890  50.0673 0056713  99.8326 316.8290 14.08295759969456"}}, "geometry": {"type": "Point", "coordinates": [38.717567256415634, 51.93190283466868]}}, {"type": "Feature", "properties": {"norad_id": 30212, "name": "FENGYUN 1C DEB", "group": "fengyun-1c-debris", "lat": 75.48396949528376, "lon": 86.49254220381646, "alt_km": 906.193700588532, "timestamp": "2025-12-26T15:29:39.714046+00:00", "meta": {"OBJECT_NAME": "FENGYUN 1C DEB", "OBJECT_ID": "1999-025VV", "EPOCH": "2025-12-25T14:56:30.844608", "MEAN_MOTION": 13.97065977, "ECCENTRICITY": 0.0096975, "INCLINATION": 99.4564, "RA_OF_ASC_NODE": 225.3725, "ARG_OF_PERICENTER": 202.0401, "MEAN_ANOMALY": 157.6577, "EPHEMERIS_TYPE": 0, "CLASSIFICATION_TYPE": "U", "NORAD_CAT_ID": 30212, "ELEMENT_SET_NO": 999, "REV_AT_EPOCH": 96405, "BSTAR": 0.00047375, "MEAN_MOTION_DOT": 6.41e-06, "MEAN_MOTION_DDOT": 0}, "tle": {"line1": "1 30212U 99025VV  25359.62257922  .00000641  00000+0  47375-3 0  9991", "line2": "2 30212  99.4564 225.3725 0096975 202.0401 157.6577 13.97065977964054"}}, "geometry": {"type": "Point", "coordinates": [86.49254220381646, 75.48396949528376]}}, {"type": "Feature", "properties": {"norad_id": 30213, "name": "FENGYUN 1C DEB", "group": "fengyun-1c-debris", "lat": 0.2697504355493498, "lon": -102.64045591223504, "alt_km": 809.2142196872192, "timestamp": "2025-12-26T15:29:39.714056+00:00", "meta": {"OBJECT_NAME": "FENGYUN 1C DEB", "OBJECT_ID": "1999-025VW", "EPOCH": "2025-12-26T04:44:56.870880", "MEAN_MOTION": 14.11651118, "ECCENTRICITY": 0.00726201, "INCLINATION": 99.1219, "RA_OF_ASC_NODE": 76.8612, "ARG_OF_PERICENTER": 206.6748, "MEAN_ANOMALY": 219.2711, "EPHEMERIS_TYPE": 0, "CLASSIFICATION_TYPE": "U", "NORAD_CAT_ID": 30213, "ELEMENT_SET_NO": 999, "REV_AT_EPOCH": 96705, "BSTAR": 0.0015286789, "MEAN_MOTION_DOT": 2.804e-05, "MEAN_MOTION_DDOT": 0}, "tle": {"line1": "1 30213U 99025VW  25360.19788045  .00002804  00000+0  15287-2 0  9990", "line2": "2 30213  99.1219  76.8612 0072620 206.6748 219.2711 14.11651118967051"}}, "geometry": {"type": "Point", "coordinates": [-102.64045591223504, 0.2697504355493498]}}, {"type": "Feature", "properties": {"norad_id": 30214, "name": "FENGYUN 1C DEB", "group": "fengyun-1c-debris", "lat": -61.5666124712491, "lon": -122.62507569463224, "alt_km": 802.359120299534, "timestamp": "2025-12-26T15:29:39.714066+00:00", "meta": {"OBJECT_NAME": "FENGYUN 1C DEB", "OBJECT_ID": "1999-025VX", "EPOCH": "2025-12-25T21:52:02.882208", "MEAN_MOTION": 14.31027904, "ECCENTRICITY": 0.002017, "INCLINATION": 98.723, "RA_OF_ASC_NODE": 73.1104, "ARG_OF_PERICENTER": 3.7365, "MEAN_ANOMALY": 57.6974, "EPHEMERIS_TYPE": 0, "CLASSIFICATION_TYPE": "U", "NORAD_CAT_ID": 30214, "ELEMENT_SET_NO": 999, "REV_AT_EPOCH": 97755, "BSTAR": 0.0016078, "MEAN_MOTION_DOT": 4.199e-05, "MEAN_MOTION_DDOT": 0}, "tle": {"line1": "1 30214U 99025VX  25359.91114447  .00004199  00000+0  16078-2 0  9996", "line2": "2 30214  98.7230  73.1104 0020170   3.7365  57.6974 14.31027904977553"}}, "geometry": {"type": "Point", "coordinates": [-122.62507569463224, -61.5666124712491]}}, {"type": "Feature", "properties": {"norad_id": 30217, "name": "FENGYUN 1C DEB", "group": "fengyun-1c-debris", "lat": 81.27863944905286, "lon": -91.37991170065102, "alt_km": 712.2793149899253, "timestamp": "2025-12-26T15:29:39.714076+00:00", "meta": {"OBJECT_NAME": "FENGYUN 1C DEB", "OBJECT_ID": "1999-025WA", "EPOCH": "2025-12-26T04:58:54.950016", "MEAN_MOTION": 14.248524, "ECCENTRICITY": 0.01406254, "INCLINATION": 98.4329, "RA_OF_ASC_NODE": 343.4507, "ARG_OF_PERICENTER": 60.6891, "MEAN_ANOMALY": 300.8257, "EPHEMERIS_TYPE": 0, "CLASSIFICATION_TYPE": "U", "NORAD_CAT_ID": 30217, "ELEMENT_SET_NO": 999, "REV_AT_EPOCH": 98265, "BSTAR": 0.00027951439, "MEAN_MOTION_DOT": 6.82e-06, "MEAN_MOTION_DDOT": 0}, "tle": {"line1": "1 30217U 99025WA  25360.20758044  .00000682  00000+0  27951-3 0  9996", "line2": "2 30217  98.4329 343.4507 0140625  60.6891 300.8257 14.24852400982659"}}, "geometry": {"type": "Point", "coordinates": [-91.37991170065102, 81.27863944905286]}}, {"type": "Feature", "properties": {"norad_id": 30218, "name": "FENGYUN 1C DEB", "group": "fengyun-1c-debris", "lat": 24.612593688489582, "lon": -85.4044662616535, "alt_km": 768.0129354782266, "timestamp": "2025-12-26T15:29:39.714086+00:00", "meta": {"OBJECT_NAME": "FENGYUN 1C DEB", "OBJECT_ID": "1999-025WB", "EPOCH": "2025-12-26T04:58:48.356832", "MEAN_MOTION": 14.28972786, "ECCENTRICITY": 0.00713661, "INCLINATION": 98.9855, "RA_OF_ASC_NODE": 89.9876, "ARG_OF_PERICENTER": 215.5335, "MEAN_ANOMALY": 207.7009, "EPHEMERIS_TYPE": 0, "CLASSIFICATION_TYPE": "U", "NORAD_CAT_ID": 30218, "ELEMENT_SET_NO": 999, "REV_AT_EPOCH": 97301, "BSTAR": 0.002687532, "MEAN_MOTION_DOT": 6.943e-05, "MEAN_MOTION_DDOT": 0}, "tle": {"line1": "1 30218U 99025WB  25360.20750413  .00006943  00000+0  26875-2 0  9998", "line2": "2 30218  98.9855  89.9876 0071366 215.5335 207.7009 14.28972786973013"}}, "geometry": {"type": "Point", "coordinates": [-85.4044662616535, 24.612593688489582]}}, {"type": "Feature", "properties": {"norad_id": 30221, "name": "FENGYUN 1C DEB", "group": "fengyun-1c-debris", "lat": -13.27169530462729, "lon": -93.04665655344189, "alt_km": 843.9675196383005, "timestamp": "2025-12-26T15:29:39.714096+00:00", "meta": {"OBJECT_NAME": "FENGYUN 1C DEB", "OBJECT_ID": "1999-025WE", "EPOCH": "2025-12-25T17:00:35.919648", "MEAN_MOTION": 14.45834455, "ECCENTRICITY": 0.01447688, "INCLINATION": 98.9554, "RA_OF_ASC_NODE": 88.0961, "ARG_OF_PERICENTER": 2.7589, "MEAN_ANOMALY": 357.4367, "EPHEMERIS_TYPE": 0, "CLASSIFICATION_TYPE": "U", "NORAD_CAT_ID": 30221, "ELEMENT_SET_NO": 999, "REV_AT_EPOCH": 99588, "BSTAR": 0.00020487055, "MEAN_MOTION_DOT": 7.71e-06, "MEAN_MOTION_DDOT": 0}, "tle": {"line1": "1 30221U 99025WE  25359.70874907  .00000771  00000+0  20487-3 0  9997", "line2": "2 30221  98.9554  88.0961 0144768   2.7589 357.4367 14.45834455995880"}}, "geometry": {"type": "Point", "coordinates": [-93.04665655344189, -13.27169530462729]}}, {"type": "Feature", "properties": {"norad_id": 30222, "name": "FENGYUN 1C DEB", "group": "fengyun-1c-debris", "lat": -60.9534933518285, "lon": -162.61882155754995, "alt_km": 898.6635350244333, "timestamp": "2025-12-26T15:29:39.714106+00:00", "meta": {"OBJECT_NAME": "FENGYUN 1C DEB", "OBJECT_ID": "1999-025WF", "EPOCH": "2025-12-25T14:57:42.142752", "MEAN_MOTION": 14.04079268, "ECCENTRICITY": 0.0037243, "INCLINATION": 98.84, "RA_OF_ASC_NODE": 32.6596, "ARG_OF_PERICENTER": 1.1966, "MEAN_ANOMALY": 117.334, "EPHEMERIS_TYPE": 0, "CLASSIFICATION_TYPE": "U", "NORAD_CAT_ID": 30222, "ELEMENT_SET_NO": 999, "REV_AT_EPOCH": 97019, "BSTAR": 0.00026298, "MEAN_MOTION_DOT": 3.76e-06, "MEAN_MOTION_DDOT": 0}, "tle": {"line1": "1 30222U 99025WF  25359.62340443  .00000376  00000+0  26298-3 0  9999", "line2": "2 30222  98.8400  32.6596 0037243   1.1966 117.3340 14.04079268970199"}}, "geometry": {"type": "Point", "coordinates": [-162.61882155754995, -60.9534933518285]}}]}